start=new Date('2022-09-30T00:00:00.000Z').valueOf();
sats=[{"OBJECT_ID":"2020-038R","OBJECT_NAME":"STARLINK-1503","MEAN_MOTION_DDOT":"0.0000000000000","ELEMENT_SET_NO":"999","MEAN_MOTION":"15.06397954","PERIOD":"95.592","SITE":"AFETR","BSTAR":"0.00001678600000","DECAY_DATE":null,"RCS_SIZE":"LARGE","TLE_LINE1":"1 45745U 20038R   22272.85770507 -.00000031  00000-0  16786-4 0  9999","GP_ID":"213810520","TLE_LINE2":"2 45745  53.0573 118.7551 0001365  88.3369 271.7776 15.06397954127680","MEAN_ANOMALY":"271.7776","TIME_SYSTEM":"UTC","EPHEMERIS_TYPE":"0","REV_AT_EPOCH":"12768","MEAN_MOTION_DOT":"-0.00000031","CENTER_NAME":"EARTH","APOAPSIS":"548.165","PERIAPSIS":"546.275","REF_FRAME":"TEME","RA_OF_ASC_NODE":"118.7551","CLASSIFICATION_TYPE":"U","EPOCH":"2022-09-29T20:35:05.718048","LAUNCH_DATE":"2020-06-13","OBJECT_TYPE":"PAYLOAD","ARG_OF_PERICENTER":"88.3369","ECCENTRICITY":"0.00013650","FILE":"3586987","COUNTRY_CODE":"US","NORAD_CAT_ID":"45745","INCLINATION":"53.0573","SEMIMAJOR_AXIS":"6925.355","MEAN_ELEMENT_THEORY":"SGP4"},{"RCS_SIZE":"LARGE","DECAY_DATE":null,"MEAN_ANOMALY":"249.4994","TLE_LINE2":"2 45746  53.0541 119.5976 0001239 110.6128 249.4994 15.06391626126726","GP_ID":"213833734","TLE_LINE1":"1 45746U 20038S   22272.67340359 -.00000589  00000-0 -20658-4 0  9990","OBJECT_ID":"2020-038S","BSTAR":"-0.00002065800000","ELEMENT_SET_NO":"999","MEAN_MOTION_DDOT":"0.0000000000000","OBJECT_NAME":"STARLINK-1504","SITE":"AFETR","PERIOD":"95.593","MEAN_MOTION":"15.06391626","FILE":"3587117","ARG_OF_PERICENTER":"110.6128","ECCENTRICITY":"0.00012390","INCLINATION":"53.0541","SEMIMAJOR_AXIS":"6925.374","MEAN_ELEMENT_THEORY":"SGP4","COUNTRY_CODE":"US","NORAD_CAT_ID":"45746","APOAPSIS":"548.097","CENTER_NAME":"EARTH","REF_FRAME":"TEME","PERIAPSIS":"546.381","TIME_SYSTEM":"UTC","MEAN_MOTION_DOT":"-0.00000589","REV_AT_EPOCH":"12672","EPHEMERIS_TYPE":"0","LAUNCH_DATE":"2020-06-13","OBJECT_TYPE":"PAYLOAD","RA_OF_ASC_NODE":"119.5976","EPOCH":"2022-09-29T16:09:42.070176","CLASSIFICATION_TYPE":"U"},{"COUNTRY_CODE":"US","NORAD_CAT_ID":"45747","INCLINATION":"53.0551","SEMIMAJOR_AXIS":"6925.393","MEAN_ELEMENT_THEORY":"SGP4","ARG_OF_PERICENTER":"78.7974","ECCENTRICITY":"0.00012150","FILE":"3587117","EPOCH":"2022-09-29T16:15:01.109952","RA_OF_ASC_NODE":"119.5751","CLASSIFICATION_TYPE":"U","LAUNCH_DATE":"2020-06-13","OBJECT_TYPE":"PAYLOAD","TIME_SYSTEM":"UTC","EPHEMERIS_TYPE":"0","REV_AT_EPOCH":"12673","MEAN_MOTION_DOT":"-0.00001335","CENTER_NAME":"EARTH","APOAPSIS":"548.100","PERIAPSIS":"546.417","REF_FRAME":"TEME","TLE_LINE1":"1 45747U 20038T   22272.67709618 -.00001335  00000-0 -70793-4 0  9993","GP_ID":"213832991","TLE_LINE2":"2 45747  53.0551 119.5751 0001215  78.7974 281.3151 15.06385456126731","MEAN_ANOMALY":"281.3151","DECAY_DATE":null,"RCS_SIZE":"LARGE","OBJECT_NAME":"STARLINK-1506","MEAN_MOTION_DDOT":"0.0000000000000","ELEMENT_SET_NO":"999","MEAN_MOTION":"15.06385456","SITE":"AFETR","PERIOD":"95.593","BSTAR":"-0.00007079300000","OBJECT_ID":"2020-038T"},{"TIME_SYSTEM":"UTC","EPHEMERIS_TYPE":"0","REV_AT_EPOCH":"12675","MEAN_MOTION_DOT":"0.00002539","CENTER_NAME":"EARTH","APOAPSIS":"548.164","PERIAPSIS":"546.373","REF_FRAME":"TEME","EPOCH":"2022-09-29T20:44:20.712768","RA_OF_ASC_NODE":"118.7132","CLASSIFICATION_TYPE":"U","LAUNCH_DATE":"2020-06-13","OBJECT_TYPE":"PAYLOAD","ARG_OF_PERICENTER":"91.0976","ECCENTRICITY":"0.00012930","FILE":"3587117","COUNTRY_CODE":"US","NORAD_CAT_ID":"45748","INCLINATION":"53.0543","SEMIMAJOR_AXIS":"6925.404","MEAN_ELEMENT_THEORY":"SGP4","OBJECT_ID":"2020-038U","MEAN_MOTION_DDOT":"0.0000000000000","OBJECT_NAME":"STARLINK-1507","ELEMENT_SET_NO":"999","MEAN_MOTION":"15.06381978","SITE":"AFETR","PERIOD":"95.593","BSTAR":"0.00018940000000","DECAY_DATE":null,"RCS_SIZE":"LARGE","GP_ID":"213833241","TLE_LINE1":"1 45748U 20038U   22272.86412862  .00002539  00000-0  18940-3 0  9997","TLE_LINE2":"2 45748  53.0543 118.7132 0001293  91.0976 269.0162 15.06381978126755","MEAN_ANOMALY":"269.0162"},{"MEAN_MOTION":"15.06397346","PERIOD":"95.592","SITE":"AFETR","MEAN_MOTION_DDOT":"0.0000000000000","OBJECT_NAME":"STARLINK-1391","ELEMENT_SET_NO":"999","BSTAR":"0.00005094800000","OBJECT_ID":"2020-038W","GP_ID":"213833491","TLE_LINE1":"1 45750U 20038W   22272.82637646  .00000477  00000-0  50948-4 0  9999","TLE_LINE2":"2 45750  53.0544  98.8989 0001343  79.2940 280.8200 15.06397346127045","MEAN_ANOMALY":"280.8200","DECAY_DATE":null,"RCS_SIZE":"LARGE","EPOCH":"2022-09-29T19:49:58.926144","RA_OF_ASC_NODE":"98.8989","CLASSIFICATION_TYPE":"U","OBJECT_TYPE":"PAYLOAD","LAUNCH_DATE":"2020-06-13","EPHEMERIS_TYPE":"0","REV_AT_EPOCH":"12704","MEAN_MOTION_DOT":"0.00000477","TIME_SYSTEM":"UTC","PERIAPSIS":"546.292","REF_FRAME":"TEME","CENTER_NAME":"EARTH","APOAPSIS":"548.152","NORAD_CAT_ID":"45750","COUNTRY_CODE":"US","MEAN_ELEMENT_THEORY":"SGP4","SEMIMAJOR_AXIS":"6925.357","INCLINATION":"53.0544","ECCENTRICITY":"0.00013430","ARG_OF_PERICENTER":"79.2940","FILE":"3587117"},{"RA_OF_ASC_NODE":"99.8186","EPOCH":"2022-09-29T14:58:02.418240","CLASSIFICATION_TYPE":"U","LAUNCH_DATE":"2020-06-13","OBJECT_TYPE":"PAYLOAD","TIME_SYSTEM":"UTC","EPHEMERIS_TYPE":"0","MEAN_MOTION_DOT":"0.00001059","REV_AT_EPOCH":"12701","CENTER_NAME":"EARTH","APOAPSIS":"548.193","PERIAPSIS":"546.227","REF_FRAME":"TEME","COUNTRY_CODE":"US","NORAD_CAT_ID":"45751","INCLINATION":"53.0541","SEMIMAJOR_AXIS":"6925.345","MEAN_ELEMENT_THEORY":"SGP4","ARG_OF_PERICENTER":"75.7783","ECCENTRICITY":"0.00014200","FILE":"3587117","MEAN_MOTION_DDOT":"0.0000000000000","OBJECT_NAME":"STARLINK-1464","ELEMENT_SET_NO":"999","MEAN_MOTION":"15.06401161","PERIOD":"95.592","SITE":"AFETR","BSTAR":"0.00008997600000","OBJECT_ID":"2020-038X","TLE_LINE1":"1 45751U 20038X   22272.62363910  .00001059  00000-0  89976-4 0  9998","GP_ID":"213834235","TLE_LINE2":"2 45751  53.0541  99.8186 0001420  75.7783 284.3363 15.06401161127012","MEAN_ANOMALY":"284.3363","DECAY_DATE":null,"RCS_SIZE":"LARGE"},{"REF_FRAME":"TEME","PERIAPSIS":"546.402","APOAPSIS":"548.074","CENTER_NAME":"EARTH","MEAN_MOTION_DOT":"0.00001149","REV_AT_EPOCH":"12701","EPHEMERIS_TYPE":"0","TIME_SYSTEM":"UTC","OBJECT_TYPE":"PAYLOAD","LAUNCH_DATE":"2020-06-13","CLASSIFICATION_TYPE":"U","RA_OF_ASC_NODE":"99.7503","EPOCH":"2022-09-29T15:13:58.456704","FILE":"3587117","ECCENTRICITY":"0.00012070","ARG_OF_PERICENTER":"96.4671","MEAN_ELEMENT_THEORY":"SGP4","INCLINATION":"53.0533","SEMIMAJOR_AXIS":"6925.373","NORAD_CAT_ID":"45753","COUNTRY_CODE":"US","OBJECT_ID":"2020-038Z","BSTAR":"0.00009601800000","PERIOD":"95.593","SITE":"AFETR","MEAN_MOTION":"15.06392138","ELEMENT_SET_NO":"999","MEAN_MOTION_DDOT":"0.0000000000000","OBJECT_NAME":"STARLINK-1476","RCS_SIZE":"LARGE","DECAY_DATE":null,"MEAN_ANOMALY":"263.6456","TLE_LINE2":"2 45753  53.0533  99.7503 0001207  96.4671 263.6456 15.06392138127012","TLE_LINE1":"1 45753U 20038Z   22272.63470436  .00001149  00000-0  96018-4 0  9998","GP_ID":"213832492"},{"RA_OF_ASC_NODE":"99.7394","EPOCH":"2022-09-29T15:19:16.914144","CLASSIFICATION_TYPE":"U","OBJECT_TYPE":"PAYLOAD","LAUNCH_DATE":"2020-06-13","EPHEMERIS_TYPE":"0","MEAN_MOTION_DOT":"0.00000715","REV_AT_EPOCH":"12701","TIME_SYSTEM":"UTC","PERIAPSIS":"546.366","REF_FRAME":"TEME","CENTER_NAME":"EARTH","APOAPSIS":"548.092","NORAD_CAT_ID":"45754","COUNTRY_CODE":"US","MEAN_ELEMENT_THEORY":"SGP4","INCLINATION":"53.0541","SEMIMAJOR_AXIS":"6925.364","ECCENTRICITY":"0.00012460","ARG_OF_PERICENTER":"83.0255","FILE":"3587117","MEAN_MOTION":"15.06394971","PERIOD":"95.592","SITE":"AFETR","OBJECT_NAME":"STARLINK-1477","MEAN_MOTION_DDOT":"0.0000000000000","ELEMENT_SET_NO":"999","BSTAR":"0.00006687100000","OBJECT_ID":"2020-038AA","GP_ID":"213832741","TLE_LINE1":"1 45754U 20038AA  22272.63839021  .00000715  00000-0  66871-4 0  9990","TLE_LINE2":"2 45754  53.0541  99.7394 0001246  83.0255 277.0875 15.06394971127014","MEAN_ANOMALY":"277.0875","DECAY_DATE":null,"RCS_SIZE":"LARGE"},{"COUNTRY_CODE":"US","NORAD_CAT_ID":"45755","INCLINATION":"53.0538","SEMIMAJOR_AXIS":"6925.339","MEAN_ELEMENT_THEORY":"SGP4","ARG_OF_PERICENTER":"84.3204","ECCENTRICITY":"0.00011230","FILE":"3587117","EPOCH":"2022-09-29T18:56:53.766816","CLASSIFICATION_TYPE":"U","RA_OF_ASC_NODE":"99.0524","LAUNCH_DATE":"2020-06-13","OBJECT_TYPE":"PAYLOAD","TIME_SYSTEM":"UTC","EPHEMERIS_TYPE":"0","MEAN_MOTION_DOT":"0.00001924","REV_AT_EPOCH":"12702","CENTER_NAME":"EARTH","APOAPSIS":"547.982","PERIAPSIS":"546.427","REF_FRAME":"TEME","TLE_LINE1":"1 45755U 20038AB  22272.78951119  .00001924  00000-0  14801-3 0  9998","GP_ID":"213833992","TLE_LINE2":"2 45755  53.0538  99.0524 0001123  84.3204 275.7913 15.06403037127024","MEAN_ANOMALY":"275.7913","DECAY_DATE":null,"RCS_SIZE":"LARGE","OBJECT_NAME":"STARLINK-1478","MEAN_MOTION_DDOT":"0.0000000000000","ELEMENT_SET_NO":"999","MEAN_MOTION":"15.06403037","PERIOD":"95.592","SITE":"AFETR","BSTAR":"0.00014801000000","OBJECT_ID":"2020-038AB"},{"RCS_SIZE":"LARGE","DECAY_DATE":null,"MEAN_ANOMALY":"275.8220","TLE_LINE1":"1 45756U 20038AC  22272.78488414  .00001654  00000-0  12991-3 0  9990","GP_ID":"213833735","TLE_LINE2":"2 45756  53.0548  99.0843 0001499  84.2940 275.8220 15.06394215127021","OBJECT_ID":"2020-038AC","BSTAR":"0.00012991000000","OBJECT_NAME":"STARLINK-1484","MEAN_MOTION_DDOT":"0.0000000000000","ELEMENT_SET_NO":"999","MEAN_MOTION":"15.06394215","SITE":"AFETR","PERIOD":"95.593","FILE":"3587117","ARG_OF_PERICENTER":"84.2940","ECCENTRICITY":"0.00014990","INCLINATION":"53.0548","SEMIMAJOR_AXIS":"6925.366","MEAN_ELEMENT_THEORY":"SGP4","COUNTRY_CODE":"US","NORAD_CAT_ID":"45756","CENTER_NAME":"EARTH","APOAPSIS":"548.269","PERIAPSIS":"546.193","REF_FRAME":"TEME","TIME_SYSTEM":"UTC","EPHEMERIS_TYPE":"0","REV_AT_EPOCH":"12702","MEAN_MOTION_DOT":"0.00001654","LAUNCH_DATE":"2020-06-13","OBJECT_TYPE":"PAYLOAD","RA_OF_ASC_NODE":"99.0843","EPOCH":"2022-09-29T18:50:13.989696","CLASSIFICATION_TYPE":"U"}];
